<?xml version="1.0" encoding="UTF-8"?>
<ndm xmlns:xsi="http://www.w3.org/2001/XMLSchema-instance" xsi:noNamespaceSchemaLocation="https://sanaregistry.org/r/ndmxml_unqualified/ndmxml-2.0.0-master-2.0.xsd">
<omm id="CCSDS_OMM_VERS" version="2.0">
<header><CREATION_DATE/><ORIGINATOR/></header><body><segment><metadata><OBJECT_NAME>KUIPER-00027</OBJECT_NAME><OBJECT_ID>2025-088S</OBJECT_ID><CENTER_NAME>EARTH</CENTER_NAME><REF_FRAME>TEME</REF_FRAME><TIME_SYSTEM>UTC</TIME_SYSTEM><MEAN_ELEMENT_THEORY>SGP4</MEAN_ELEMENT_THEORY></metadata><data><meanElements><EPOCH>2025-11-12T13:18:11.384352</EPOCH><MEAN_MOTION>14.79698617</MEAN_MOTION><ECCENTRICITY>.0005345</ECCENTRICITY><INCLINATION>51.9009</INCLINATION><RA_OF_ASC_NODE>253.4488</RA_OF_ASC_NODE><ARG_OF_PERICENTER>124.9860</ARG_OF_PERICENTER><MEAN_ANOMALY>235.1605</MEAN_ANOMALY></meanElements><tleParameters><EPHEMERIS_TYPE>0</EPHEMERIS_TYPE><CLASSIFICATION_TYPE>U</CLASSIFICATION_TYPE><NORAD_CAT_ID>63740</NORAD_CAT_ID><ELEMENT_SET_NO>999</ELEMENT_SET_NO><REV_AT_EPOCH>3027</REV_AT_EPOCH><BSTAR>.1111E-2</BSTAR><MEAN_MOTION_DOT>.8212E-4</MEAN_MOTION_DOT><MEAN_MOTION_DDOT>0</MEAN_MOTION_DDOT></tleParameters></data></segment></body></omm>
<omm id="CCSDS_OMM_VERS" version="2.0">
<header><CREATION_DATE/><ORIGINATOR/></header><body><segment><metadata><OBJECT_NAME>KUIPER-00028</OBJECT_NAME><OBJECT_ID>2025-088T</OBJECT_ID><CENTER_NAME>EARTH</CENTER_NAME><REF_FRAME>TEME</REF_FRAME><TIME_SYSTEM>UTC</TIME_SYSTEM><MEAN_ELEMENT_THEORY>SGP4</MEAN_ELEMENT_THEORY></metadata><data><meanElements><EPOCH>2025-11-12T20:12:05.995584</EPOCH><MEAN_MOTION>14.79466233</MEAN_MOTION><ECCENTRICITY>.0004524</ECCENTRICITY><INCLINATION>51.9003</INCLINATION><RA_OF_ASC_NODE>250.1577</RA_OF_ASC_NODE><ARG_OF_PERICENTER>144.1751</ARG_OF_PERICENTER><MEAN_ANOMALY>215.9516</MEAN_ANOMALY></meanElements><tleParameters><EPHEMERIS_TYPE>0</EPHEMERIS_TYPE><CLASSIFICATION_TYPE>U</CLASSIFICATION_TYPE><NORAD_CAT_ID>63741</NORAD_CAT_ID><ELEMENT_SET_NO>999</ELEMENT_SET_NO><REV_AT_EPOCH>3075</REV_AT_EPOCH><BSTAR>.11466E-2</BSTAR><MEAN_MOTION_DOT>.8435E-4</MEAN_MOTION_DOT><MEAN_MOTION_DDOT>0</MEAN_MOTION_DDOT></tleParameters></data></segment></body></omm>
<omm id="CCSDS_OMM_VERS" version="2.0">
<header><CREATION_DATE/><ORIGINATOR/></header><body><segment><metadata><OBJECT_NAME>KUIPER-00029</OBJECT_NAME><OBJECT_ID>2025-088U</OBJECT_ID><CENTER_NAME>EARTH</CENTER_NAME><REF_FRAME>TEME</REF_FRAME><TIME_SYSTEM>UTC</TIME_SYSTEM><MEAN_ELEMENT_THEORY>SGP4</MEAN_ELEMENT_THEORY></metadata><data><meanElements><EPOCH>2025-11-12T19:27:55.122624</EPOCH><MEAN_MOTION>14.80101312</MEAN_MOTION><ECCENTRICITY>.0009829</ECCENTRICITY><INCLINATION>51.9020</INCLINATION><RA_OF_ASC_NODE>248.1734</RA_OF_ASC_NODE><ARG_OF_PERICENTER>97.4406</ARG_OF_PERICENTER><MEAN_ANOMALY>262.7673</MEAN_ANOMALY></meanElements><tleParameters><EPHEMERIS_TYPE>0</EPHEMERIS_TYPE><CLASSIFICATION_TYPE>U</CLASSIFICATION_TYPE><NORAD_CAT_ID>63742</NORAD_CAT_ID><ELEMENT_SET_NO>999</ELEMENT_SET_NO><REV_AT_EPOCH>3030</REV_AT_EPOCH><BSTAR>.10386E-2</BSTAR><MEAN_MOTION_DOT>.7741E-4</MEAN_MOTION_DOT><MEAN_MOTION_DDOT>0</MEAN_MOTION_DDOT></tleParameters></data></segment></body></omm>
<omm id="CCSDS_OMM_VERS" version="2.0">
<header><CREATION_DATE/><ORIGINATOR/></header><body><segment><metadata><OBJECT_NAME>KUIPER-00030</OBJECT_NAME><OBJECT_ID>2025-088V</OBJECT_ID><CENTER_NAME>EARTH</CENTER_NAME><REF_FRAME>TEME</REF_FRAME><TIME_SYSTEM>UTC</TIME_SYSTEM><MEAN_ELEMENT_THEORY>SGP4</MEAN_ELEMENT_THEORY></metadata><data><meanElements><EPOCH>2025-11-12T06:39:21.153888</EPOCH><MEAN_MOTION>14.79925362</MEAN_MOTION><ECCENTRICITY>.0015149</ECCENTRICITY><INCLINATION>51.9004</INCLINATION><RA_OF_ASC_NODE>269.7344</RA_OF_ASC_NODE><ARG_OF_PERICENTER>42.9674</ARG_OF_PERICENTER><MEAN_ANOMALY>317.2469</MEAN_ANOMALY></meanElements><tleParameters><EPHEMERIS_TYPE>0</EPHEMERIS_TYPE><CLASSIFICATION_TYPE>U</CLASSIFICATION_TYPE><NORAD_CAT_ID>63743</NORAD_CAT_ID><ELEMENT_SET_NO>999</ELEMENT_SET_NO><REV_AT_EPOCH>3024</REV_AT_EPOCH><BSTAR>.18526715E-2</BSTAR><MEAN_MOTION_DOT>.13952E-3</MEAN_MOTION_DOT><MEAN_MOTION_DDOT>0</MEAN_MOTION_DDOT></tleParameters></data></segment></body></omm>
<omm id="CCSDS_OMM_VERS" version="2.0">
<header><CREATION_DATE/><ORIGINATOR/></header><body><segment><metadata><OBJECT_NAME>KUIPER-00031</OBJECT_NAME><OBJECT_ID>2025-088W</OBJECT_ID><CENTER_NAME>EARTH</CENTER_NAME><REF_FRAME>TEME</REF_FRAME><TIME_SYSTEM>UTC</TIME_SYSTEM><MEAN_ELEMENT_THEORY>SGP4</MEAN_ELEMENT_THEORY></metadata><data><meanElements><EPOCH>2025-11-12T19:56:46.335840</EPOCH><MEAN_MOTION>14.80014267</MEAN_MOTION><ECCENTRICITY>.0005941</ECCENTRICITY><INCLINATION>51.8990</INCLINATION><RA_OF_ASC_NODE>253.3469</RA_OF_ASC_NODE><ARG_OF_PERICENTER>84.9978</ARG_OF_PERICENTER><MEAN_ANOMALY>275.1662</MEAN_ANOMALY></meanElements><tleParameters><EPHEMERIS_TYPE>0</EPHEMERIS_TYPE><CLASSIFICATION_TYPE>U</CLASSIFICATION_TYPE><NORAD_CAT_ID>63744</NORAD_CAT_ID><ELEMENT_SET_NO>999</ELEMENT_SET_NO><REV_AT_EPOCH>3023</REV_AT_EPOCH><BSTAR>-.2018E-2</BSTAR><MEAN_MOTION_DOT>-.15605E-3</MEAN_MOTION_DOT><MEAN_MOTION_DDOT>0</MEAN_MOTION_DDOT></tleParameters></data></segment></body></omm>
<omm id="CCSDS_OMM_VERS" version="2.0">
<header><CREATION_DATE/><ORIGINATOR/></header><body><segment><metadata><OBJECT_NAME>KUIPER-00032</OBJECT_NAME><OBJECT_ID>2025-088X</OBJECT_ID><CENTER_NAME>EARTH</CENTER_NAME><REF_FRAME>TEME</REF_FRAME><TIME_SYSTEM>UTC</TIME_SYSTEM><MEAN_ELEMENT_THEORY>SGP4</MEAN_ELEMENT_THEORY></metadata><data><meanElements><EPOCH>2025-11-12T03:04:52.917600</EPOCH><MEAN_MOTION>15.32349313</MEAN_MOTION><ECCENTRICITY>.00060288</ECCENTRICITY><INCLINATION>51.8706</INCLINATION><RA_OF_ASC_NODE>230.3954</RA_OF_ASC_NODE><ARG_OF_PERICENTER>77.2557</ARG_OF_PERICENTER><MEAN_ANOMALY>282.9101</MEAN_ANOMALY></meanElements><tleParameters><EPHEMERIS_TYPE>0</EPHEMERIS_TYPE><CLASSIFICATION_TYPE>U</CLASSIFICATION_TYPE><NORAD_CAT_ID>63745</NORAD_CAT_ID><ELEMENT_SET_NO>999</ELEMENT_SET_NO><REV_AT_EPOCH>3149</REV_AT_EPOCH><BSTAR>.66928598E-3</BSTAR><MEAN_MOTION_DOT>.20913E-3</MEAN_MOTION_DOT><MEAN_MOTION_DDOT>0</MEAN_MOTION_DDOT></tleParameters></data></segment></body></omm>
<omm id="CCSDS_OMM_VERS" version="2.0">
<header><CREATION_DATE/><ORIGINATOR/></header><body><segment><metadata><OBJECT_NAME>KUIPER-00033</OBJECT_NAME><OBJECT_ID>2025-088Y</OBJECT_ID><CENTER_NAME>EARTH</CENTER_NAME><REF_FRAME>TEME</REF_FRAME><TIME_SYSTEM>UTC</TIME_SYSTEM><MEAN_ELEMENT_THEORY>SGP4</MEAN_ELEMENT_THEORY></metadata><data><meanElements><EPOCH>2025-11-12T02:59:05.828064</EPOCH><MEAN_MOTION>14.79987576</MEAN_MOTION><ECCENTRICITY>.00040116</ECCENTRICITY><INCLINATION>51.9029</INCLINATION><RA_OF_ASC_NODE>286.4650</RA_OF_ASC_NODE><ARG_OF_PERICENTER>131.3347</ARG_OF_PERICENTER><MEAN_ANOMALY>228.7961</MEAN_ANOMALY></meanElements><tleParameters><EPHEMERIS_TYPE>0</EPHEMERIS_TYPE><CLASSIFICATION_TYPE>U</CLASSIFICATION_TYPE><NORAD_CAT_ID>63746</NORAD_CAT_ID><ELEMENT_SET_NO>999</ELEMENT_SET_NO><REV_AT_EPOCH>3019</REV_AT_EPOCH><BSTAR>.16316098E-3</BSTAR><MEAN_MOTION_DOT>.1024E-4</MEAN_MOTION_DOT><MEAN_MOTION_DDOT>0</MEAN_MOTION_DDOT></tleParameters></data></segment></body></omm>
<omm id="CCSDS_OMM_VERS" version="2.0">
<header><CREATION_DATE/><ORIGINATOR/></header><body><segment><metadata><OBJECT_NAME>KUIPER-00034</OBJECT_NAME><OBJECT_ID>2025-088Z</OBJECT_ID><CENTER_NAME>EARTH</CENTER_NAME><REF_FRAME>TEME</REF_FRAME><TIME_SYSTEM>UTC</TIME_SYSTEM><MEAN_ELEMENT_THEORY>SGP4</MEAN_ELEMENT_THEORY></metadata><data><meanElements><EPOCH>2025-11-12T13:08:44.831040</EPOCH><MEAN_MOTION>14.80119209</MEAN_MOTION><ECCENTRICITY>.0003013</ECCENTRICITY><INCLINATION>51.9004</INCLINATION><RA_OF_ASC_NODE>246.8781</RA_OF_ASC_NODE><ARG_OF_PERICENTER>75.2949</ARG_OF_PERICENTER><MEAN_ANOMALY>284.8347</MEAN_ANOMALY></meanElements><tleParameters><EPHEMERIS_TYPE>0</EPHEMERIS_TYPE><CLASSIFICATION_TYPE>U</CLASSIFICATION_TYPE><NORAD_CAT_ID>63747</NORAD_CAT_ID><ELEMENT_SET_NO>999</ELEMENT_SET_NO><REV_AT_EPOCH>3046</REV_AT_EPOCH><BSTAR>.11598E-2</BSTAR><MEAN_MOTION_DOT>.8671E-4</MEAN_MOTION_DOT><MEAN_MOTION_DDOT>0</MEAN_MOTION_DDOT></tleParameters></data></segment></body></omm>

</ndm>
