KUIPER-00027            
1 63740U 25088S   25316.55429843  .00008212  00000+0  11110-2 0  9998
2 63740  51.9009 253.4488 0005345 124.9860 235.1605 14.79698617 30279
KUIPER-00028            
1 63741U 25088T   25316.84173606  .00008435  00000+0  11466-2 0  9995
2 63741  51.9003 250.1577 0004524 144.1751 215.9516 14.79466233 30755
KUIPER-00029            
1 63742U 25088U   25316.81105466  .00007741  00000+0  10386-2 0  9991
2 63742  51.9020 248.1734 0009829  97.4406 262.7673 14.80101312 30308
KUIPER-00030            
1 63743U 25088V   25316.27732817  .00013952  00000+0  18527-2 0  9994
2 63743  51.9004 269.7344 0015149  42.9674 317.2469 14.79925362 30240
KUIPER-00031            
1 63744U 25088W   25316.83109185 -.00015605  00000+0 -20180-2 0  9990
2 63744  51.8990 253.3469 0005941  84.9978 275.1662 14.80014267 30234
KUIPER-00032            
1 63745U 25088X   25316.12839025  .00020913  00000+0  66929-3 0  9994
2 63745  51.8706 230.3954 0006028  77.2557 282.9101 15.32349313 31493
KUIPER-00033            
1 63746U 25088Y   25316.12437301  .00001024  00000+0  16316-3 0  9993
2 63746  51.9029 286.4650 0004011 131.3347 228.7961 14.79987576 30194
KUIPER-00034            
1 63747U 25088Z   25316.54774110  .00008671  00000+0  11598-2 0  9993
2 63747  51.9004 246.8781 0003013  75.2949 284.8347 14.80119209 30461
